{"type": "FeatureCollection", "features": [ {"type": "Feature", "properties": {"norad_id": 54234, "name": "NOAA 21 (JPSS-2)", "group": "weather", "lat": -7.257602822436856, "lon": 94.0995585758802, "alt_km": 832.0600236111204, "timestamp": "2025-12-04T19:33:59.278400+00:00", "meta": {"OBJECT_NAME": "NOAA 21 (JPSS-2)", "OBJECT_ID": "2022-150A", "EPOCH": "2025-12-04T06:50:44.872512", "MEAN_MOTION": 14.19520656, "ECCENTRICITY": 0.00025156, "INCLINATION": 98.7449, "RA_OF_ASC_NODE": 274.6995, "ARG_OF_PERICENTER": 53.9232, "MEAN_ANOMALY": 306.2177, "EPHEMERIS_TYPE": 0, "CLASSIFICATION_TYPE": "U", "NORAD_CAT_ID": 54234, "ELEMENT_SET_NO": 999, "REV_AT_EPOCH": 15889, "BSTAR": 0.00012739641, "MEAN_MOTION_DOT": 2.25e-06, "MEAN_MOTION_DDOT": 0}, "tle": {"line1": "1 54234U 22150A   25338.28524158  .00000225  00000+0  12740-3 0  9999", "line2": "2 54234  98.7449 274.6995 0002515  53.9232 306.2177 14.19520656158896"}}, "geometry": {"type": "Point", "coordinates": [94.0995585758802, -7.257602822436856]}}, {"type": "Feature", "properties": {"norad_id": 54743, "name": "METEOSAT-12 (MTG-I1)", "group": "weather", "lat": -0.26431506558341294, "lon": 7.100897429334486, "alt_km": 35788.74459885614, "timestamp": "2025-12-04T19:33:59.278413+00:00", "meta": {"OBJECT_NAME": "METEOSAT-12 (MTG-I1)", "OBJECT_ID": "2022-170C", "EPOCH": "2025-12-04T05:09:49.421376", "MEAN_MOTION": 1.00273795, "ECCENTRICITY": 0.00015299, "INCLINATION": 0.7187, "RA_OF_ASC_NODE": 30.1576, "ARG_OF_PERICENTER": 217.1226, "MEAN_ANOMALY": 263.1859, "EPHEMERIS_TYPE": 0, "CLASSIFICATION_TYPE": "U", "NORAD_CAT_ID": 54743, "ELEMENT_SET_NO": 999, "REV_AT_EPOCH": 1102, "BSTAR": 0, "MEAN_MOTION_DOT": 9e-08, "MEAN_MOTION_DDOT": 0}, "tle": {"line1": "1 54743U 22170C   25338.21515534  .00000009  00000+0  00000+0 0  9999", "line2": "2 54743   0.7187  30.1576 0001529 217.1226 263.1859  1.00273795 11020"}}, "geometry": {"type": "Point", "coordinates": [7.100897429334486, -0.26431506558341294]}}, {"type": "Feature", "properties": {"norad_id": 55973, "name": "TIANMU-1 03", "group": "weather", "lat": -77.79862149587146, "lon": -76.34968265736272, "alt_km": 454.8615453851435, "timestamp": "2025-12-04T19:33:59.278423+00:00", "meta": {"OBJECT_NAME": "TIANMU-1 03", "OBJECT_ID": "2023-039A", "EPOCH": "2025-12-04T07:31:39.873216", "MEAN_MOTION": 15.40547491, "ECCENTRICITY": 0.00045626, "INCLINATION": 97.5101, "RA_OF_ASC_NODE": 140.7325, "ARG_OF_PERICENTER": 85.0581, "MEAN_ANOMALY": 275.1186, "EPHEMERIS_TYPE": 0, "CLASSIFICATION_TYPE": "U", "NORAD_CAT_ID": 55973, "ELEMENT_SET_NO": 999, "REV_AT_EPOCH": 15076, "BSTAR": 0.00078271202, "MEAN_MOTION_DOT": 0.00031811, "MEAN_MOTION_DDOT": 0}, "tle": {"line1": "1 55973U 23039A   25338.31365594  .00031811  00000+0  78271-3 0  9994", "line2": "2 55973  97.5101 140.7325 0004562  85.0581 275.1186 15.40547491150769"}}, "geometry": {"type": "Point", "coordinates": [-76.34968265736272, -77.79862149587146]}}, {"type": "Feature", "properties": {"norad_id": 55974, "name": "TIANMU-1 04", "group": "weather", "lat": 4.571389614546351, "lon": 139.83809200871508, "alt_km": 444.9767477020123, "timestamp": "2025-12-04T19:33:59.278432+00:00", "meta": {"OBJECT_NAME": "TIANMU-1 04", "OBJECT_ID": "2023-039B", "EPOCH": "2025-12-04T08:38:12.056928", "MEAN_MOTION": 15.40880717, "ECCENTRICITY": 0.00052346, "INCLINATION": 97.5035, "RA_OF_ASC_NODE": 139.9744, "ARG_OF_PERICENTER": 81.0808, "MEAN_ANOMALY": 279.103, "EPHEMERIS_TYPE": 0, "CLASSIFICATION_TYPE": "U", "NORAD_CAT_ID": 55974, "ELEMENT_SET_NO": 999, "REV_AT_EPOCH": 15077, "BSTAR": 0.00078396831, "MEAN_MOTION_DOT": 0.0003222, "MEAN_MOTION_DDOT": 0}, "tle": {"line1": "1 55974U 23039B   25338.35986177  .00032220  00000+0  78397-3 0  9999", "line2": "2 55974  97.5035 139.9744 0005234  81.0808 279.1030 15.40880717150770"}}, "geometry": {"type": "Point", "coordinates": [139.83809200871508, 4.571389614546351]}}, {"type": "Feature", "properties": {"norad_id": 55975, "name": "TIANMU-1 05", "group": "weather", "lat": 46.74663543054398, "lon": 132.87521495857092, "alt_km": 438.6872702853998, "timestamp": "2025-12-04T19:33:59.278441+00:00", "meta": {"OBJECT_NAME": "TIANMU-1 05", "OBJECT_ID": "2023-039C", "EPOCH": "2025-12-04T08:26:58.259616", "MEAN_MOTION": 15.40508195, "ECCENTRICITY": 0.00043162, "INCLINATION": 97.5081, "RA_OF_ASC_NODE": 140.4583, "ARG_OF_PERICENTER": 101.5919, "MEAN_ANOMALY": 258.5811, "EPHEMERIS_TYPE": 0, "CLASSIFICATION_TYPE": "U", "NORAD_CAT_ID": 55975, "ELEMENT_SET_NO": 999, "REV_AT_EPOCH": 15075, "BSTAR": 0.00078864759, "MEAN_MOTION_DOT": 0.00032011, "MEAN_MOTION_DDOT": 0}, "tle": {"line1": "1 55975U 23039C   25338.35206319  .00032011  00000+0  78865-3 0  9991", "line2": "2 55975  97.5081 140.4583 0004316 101.5919 258.5811 15.40508195150754"}}, "geometry": {"type": "Point", "coordinates": [132.87521495857092, 46.74663543054398]}}, {"type": "Feature", "properties": {"norad_id": 55976, "name": "TIANMU-1 06", "group": "weather", "lat": -8.861705605269824, "lon": 142.57093212199896, "alt_km": 448.25022174251535, "timestamp": "2025-12-04T19:33:59.278450+00:00", "meta": {"OBJECT_NAME": "TIANMU-1 06", "OBJECT_ID": "2023-039D", "EPOCH": "2025-12-04T08:41:44.555136", "MEAN_MOTION": 15.40933727, "ECCENTRICITY": 0.00046794, "INCLINATION": 97.5092, "RA_OF_ASC_NODE": 140.9271, "ARG_OF_PERICENTER": 97.1856, "MEAN_ANOMALY": 262.9922, "EPHEMERIS_TYPE": 0, "CLASSIFICATION_TYPE": "U", "NORAD_CAT_ID": 55976, "ELEMENT_SET_NO": 999, "REV_AT_EPOCH": 15077, "BSTAR": 0.0007816242, "MEAN_MOTION_DOT": 0.00032176, "MEAN_MOTION_DDOT": 0}, "tle": {"line1": "1 55976U 23039D   25338.36232124  .00032176  00000+0  78162-3 0  9998", "line2": "2 55976  97.5092 140.9271 0004679  97.1856 262.9922 15.40933727150775"}}, "geometry": {"type": "Point", "coordinates": [142.57093212199896, -8.861705605269824]}}, {"type": "Feature", "properties": {"norad_id": 56232, "name": "FENGYUN 3G", "group": "weather", "lat": 15.871028392751267, "lon": -77.86017527049808, "alt_km": 406.32386645272345, "timestamp": "2025-12-04T19:33:59.278461+00:00", "meta": {"OBJECT_NAME": "FENGYUN 3G", "OBJECT_ID": "2023-055A", "EPOCH": "2025-12-04T08:39:59.795136", "MEAN_MOTION": 15.5288598, "ECCENTRICITY": 0.00092032, "INCLINATION": 49.9947, "RA_OF_ASC_NODE": 270.6675, "ARG_OF_PERICENTER": 108.2747, "MEAN_ANOMALY": 251.9222, "EPHEMERIS_TYPE": 0, "CLASSIFICATION_TYPE": "U", "NORAD_CAT_ID": 56232, "ELEMENT_SET_NO": 999, "REV_AT_EPOCH": 14972, "BSTAR": 0.00097235273, "MEAN_MOTION_DOT": 0.00061724, "MEAN_MOTION_DDOT": 0}, "tle": {"line1": "1 56232U 23055A   25338.36110874  .00061724  00000+0  97235-3 0  9992", "line2": "2 56232  49.9947 270.6675 0009203 108.2747 251.9222 15.52885980149725"}}, "geometry": {"type": "Point", "coordinates": [-77.86017527049808, 15.871028392751267]}}, {"type": "Feature", "properties": {"norad_id": 57166, "name": "METEOR-M2 3", "group": "weather", "lat": -34.1392442969015, "lon": 38.40939447897795, "alt_km": 816.585353824581, "timestamp": "2025-12-04T19:33:59.278470+00:00", "meta": {"OBJECT_NAME": "METEOR-M2 3", "OBJECT_ID": "2023-091A", "EPOCH": "2025-12-04T07:55:27.197760", "MEAN_MOTION": 14.24024587, "ECCENTRICITY": 0.00043576, "INCLINATION": 98.639, "RA_OF_ASC_NODE": 32.016, "ARG_OF_PERICENTER": 31.4823, "MEAN_ANOMALY": 328.6616, "EPHEMERIS_TYPE": 0, "CLASSIFICATION_TYPE": "U", "NORAD_CAT_ID": 57166, "ELEMENT_SET_NO": 999, "REV_AT_EPOCH": 12678, "BSTAR": 5.4004761e-05, "MEAN_MOTION_DOT": 8.1e-07, "MEAN_MOTION_DDOT": 0}, "tle": {"line1": "1 57166U 23091A   25338.33017590  .00000081  00000+0  54005-4 0  9995", "line2": "2 57166  98.6390  32.0160 0004357  31.4823 328.6616 14.24024587126787"}}, "geometry": {"type": "Point", "coordinates": [38.40939447897795, -34.1392442969015]}}, {"type": "Feature", "properties": {"norad_id": 57399, "name": "TIANMU-1 07", "group": "weather", "lat": 70.51501607333115, "lon": 7.632533324438384, "alt_km": 471.92917877497166, "timestamp": "2025-12-04T19:33:59.278485+00:00", "meta": {"OBJECT_NAME": "TIANMU-1 07", "OBJECT_ID": "2023-101A", "EPOCH": "2025-12-04T08:15:01.803168", "MEAN_MOTION": 15.27883646, "ECCENTRICITY": 0.00056297, "INCLINATION": 97.2892, "RA_OF_ASC_NODE": 28.3801, "ARG_OF_PERICENTER": 102.9375, "MEAN_ANOMALY": 257.2494, "EPHEMERIS_TYPE": 0, "CLASSIFICATION_TYPE": "U", "NORAD_CAT_ID": 57399, "ELEMENT_SET_NO": 999, "REV_AT_EPOCH": 13187, "BSTAR": 0.00060473243, "MEAN_MOTION_DOT": 0.00016414, "MEAN_MOTION_DDOT": 0}, "tle": {"line1": "1 57399U 23101A   25338.34377087  .00016414  00000+0  60473-3 0  9998", "line2": "2 57399  97.2892  28.3801 0005629 102.9375 257.2494 15.27883646131876"}}, "geometry": {"type": "Point", "coordinates": [7.632533324438384, 70.51501607333115]}}, {"type": "Feature", "properties": {"norad_id": 57400, "name": "TIANMU-1 08", "group": "weather", "lat": -72.6543657799093, "lon": -175.54818928634643, "alt_km": 493.837812185282, "timestamp": "2025-12-04T19:33:59.278494+00:00", "meta": {"OBJECT_NAME": "TIANMU-1 08", "OBJECT_ID": "2023-101B", "EPOCH": "2025-12-04T07:27:17.983584", "MEAN_MOTION": 15.27866983, "ECCENTRICITY": 0.00074732, "INCLINATION": 97.288, "RA_OF_ASC_NODE": 28.1473, "ARG_OF_PERICENTER": 107.5431, "MEAN_ANOMALY": 252.6625, "EPHEMERIS_TYPE": 0, "CLASSIFICATION_TYPE": "U", "NORAD_CAT_ID": 57400, "ELEMENT_SET_NO": 999, "REV_AT_EPOCH": 13186, "BSTAR": 0.00059259914, "MEAN_MOTION_DOT": 0.0001608, "MEAN_MOTION_DDOT": 0}, "tle": {"line1": "1 57400U 23101B   25338.31062481  .00016080  00000+0  59260-3 0  9998", "line2": "2 57400  97.2880  28.1473 0007473 107.5431 252.6625 15.27866983131861"}}, "geometry": {"type": "Point", "coordinates": [-175.54818928634643, -72.6543657799093]}}]}